{"type":"FeatureCollection","fuente":"geoBoundaries gbOpen GTM ADM2 (CONRED / OCHA 2021), CC BY 3.0 IGO","features":[{"type":"Feature","properties":{"municipio":"jalapa","nombre":"Jalapa"},"geometry":{"type":"Polygon","coordinates":[[[-90.00425,14.80594],[-90.00366,14.80168],[-90.0098,14.79558],[-90.01015,14.79105],[-90.0081,14.78627],[-90.01165,14.78485],[-90.01867,14.78844],[-90.02123,14.78828],[-90.0229,14.78642],[-90.02294,14.78345],[-90.01352,14.77555],[-90.01249,14.7732],[-90.01681,14.77131],[-90.02471,14.77523],[-90.02969,14.77567],[-90.0347,14.77439],[-90.0384,14.76842],[-90.04057,14.75951],[-90.04084,14.75491],[-90.03886,14.74775],[-90.04056,14.73957],[-90.04377,14.73522],[-90.05961,14.72253],[-90.05962,14.71094],[-90.06196,14.70308],[-90.06716,14.70195],[-90.08647,14.70323],[-90.08859,14.70383],[-90.09674,14.71198],[-90.10429,14.71408],[-90.11527,14.7098],[-90.12311,14.70925],[-90.1293,14.7029],[-90.13559,14.70357],[-90.14686,14.69915],[-90.16423,14.69776],[-90.16955,14.69615],[-90.18099,14.67792],[-90.19348,14.66851],[-90.19112,14.6603],[-90.18565,14.6498],[-90.18454,14.63011],[-90.18101,14.62043],[-90.17237,14.61471],[-90.15786,14.61338],[-90.14814,14.60524],[-90.14434,14.57142],[-90.13964,14.56305],[-90.12313,14.5419],[-90.11615,14.53001],[-90.0985,14.5289],[-90.09681,14.52742],[-90.09891,14.52393],[-90.0981,14.5211],[-90.08878,14.52245],[-90.08159,14.52047],[-90.05582,14.51934],[-90.04778,14.51774],[-90.0448,14.51455],[-90.03468,14.49399],[-90.02231,14.47832],[-90.02904,14.47108],[-90.03394,14.47156],[-90.03626,14.46728],[-90.03575,14.46084],[-90.03978,14.45555],[-90.03849,14.43949],[-90.03204,14.43038],[-90.01971,14.43764],[-90.01226,14.43753],[-89.9913,14.44087],[-89.98413,14.4457],[-89.98222,14.44908],[-89.98273,14.45357],[-89.98449,14.45966],[-89.98388,14.46244],[-89.97643,14.46945],[-89.96998,14.47261],[-89.96926,14.47703],[-89.96514,14.48395],[-89.95725,14.49277],[-89.95406,14.5045],[-89.94146,14.51792],[-89.93542,14.5278],[-89.93509,14.53449],[-89.93977,14.54165],[-89.94119,14.54582],[-89.94052,14.54969],[-89.93927,14.55196],[-89.92485,14.56298],[-89.9234,14.57145],[-89.93156,14.60451],[-89.93355,14.60638],[-89.94379,14.60887],[-89.94623,14.61168],[-89.94718,14.62191],[-89.94352,14.64789],[-89.94359,14.67158],[-89.9394,14.67296],[-89.93846,14.67509],[-89.93944,14.68887],[-89.93461,14.70554],[-89.93091,14.71175],[-89.92833,14.7377],[-89.92349,14.74828],[-89.92288,14.7545],[-89.92698,14.77495],[-89.92334,14.78179],[-89.92559,14.78953],[-89.92323,14.80352],[-89.92919,14.82096],[-89.93456,14.82079],[-89.94152,14.81835],[-89.95017,14.81261],[-89.95214,14.81071],[-89.95362,14.79958],[-89.95687,14.79535],[-89.96197,14.79448],[-89.97075,14.79862],[-89.98018,14.79708],[-89.98435,14.79924],[-89.99007,14.80688],[-89.9946,14.80799],[-89.99931,14.81125],[-90.00299,14.80876],[-90.00425,14.80594]]]}},{"type":"Feature","properties":{"municipio":"mataquescuintla","nombre":"Mataquescuintla"},"geometry":{"type":"Polygon","coordinates":[[[-90.2135,14.48322],[-90.20209,14.48462],[-90.18842,14.49071],[-90.18622,14.4907],[-90.18375,14.48683],[-90.18,14.48531],[-90.16866,14.48565],[-90.15971,14.49041],[-90.14337,14.49023],[-90.13661,14.48804],[-90.12837,14.48879],[-90.12984,14.50078],[-90.12822,14.50499],[-90.12844,14.51041],[-90.12083,14.51462],[-90.11777,14.51837],[-90.11615,14.53001],[-90.12313,14.5419],[-90.13964,14.56305],[-90.14434,14.57142],[-90.14814,14.60524],[-90.15786,14.61338],[-90.17237,14.61471],[-90.18101,14.62043],[-90.18454,14.63011],[-90.18565,14.6498],[-90.19112,14.6603],[-90.19348,14.66851],[-90.20907,14.66889],[-90.21188,14.67039],[-90.21211,14.66843],[-90.22024,14.66749],[-90.22544,14.66463],[-90.22871,14.65879],[-90.23113,14.65146],[-90.22859,14.64124],[-90.23042,14.63649],[-90.22974,14.62996],[-90.23252,14.62597],[-90.23064,14.62014],[-90.23677,14.60925],[-90.2371,14.60646],[-90.24326,14.59951],[-90.24324,14.59384],[-90.24516,14.59069],[-90.24767,14.5896],[-90.25536,14.59293],[-90.26725,14.59011],[-90.27234,14.58505],[-90.2758,14.57616],[-90.27052,14.54787],[-90.26758,14.53914],[-90.26246,14.53267],[-90.26274,14.53018],[-90.26438,14.52839],[-90.2685,14.52805],[-90.27795,14.52993],[-90.28034,14.52911],[-90.28445,14.52422],[-90.29143,14.50737],[-90.29995,14.50435],[-90.29659,14.50027],[-90.28265,14.50326],[-90.27292,14.50188],[-90.27003,14.49957],[-90.26803,14.49467],[-90.26667,14.48081],[-90.26319,14.47813],[-90.25451,14.47634],[-90.25131,14.47298],[-90.24102,14.46716],[-90.23846,14.46961],[-90.23681,14.48429],[-90.2135,14.48322]]]}},{"type":"Feature","properties":{"municipio":"monjas","nombre":"Monjas"},"geometry":{"type":"Polygon","coordinates":[[[-89.8636,14.46709],[-89.85658,14.48407],[-89.85356,14.48715],[-89.84758,14.48959],[-89.83955,14.48967],[-89.83574,14.49331],[-89.83748,14.49867],[-89.84463,14.50424],[-89.84537,14.50809],[-89.8442,14.51211],[-89.84023,14.51323],[-89.83667,14.51128],[-89.83697,14.51669],[-89.83421,14.52235],[-89.83493,14.5382],[-89.83219,14.54525],[-89.83704,14.54797],[-89.84407,14.5449],[-89.84235,14.55428],[-89.8365,14.55905],[-89.83965,14.56198],[-89.85052,14.56279],[-89.85475,14.56847],[-89.86543,14.5707],[-89.86707,14.57251],[-89.86683,14.57844],[-89.86994,14.58227],[-89.88875,14.58055],[-89.89265,14.57904],[-89.89975,14.57954],[-89.91418,14.5698],[-89.9234,14.57145],[-89.92485,14.56298],[-89.93927,14.55196],[-89.94052,14.54969],[-89.94119,14.54582],[-89.93977,14.54165],[-89.93509,14.53449],[-89.93542,14.5278],[-89.94146,14.51792],[-89.95406,14.5045],[-89.95725,14.49277],[-89.96514,14.48395],[-89.96926,14.47703],[-89.96998,14.47261],[-89.97643,14.46945],[-89.98388,14.46244],[-89.98449,14.45966],[-89.98273,14.45357],[-89.97692,14.45614],[-89.93605,14.46222],[-89.89302,14.43292],[-89.88952,14.45872],[-89.87904,14.46702],[-89.86891,14.46459],[-89.8636,14.46709]]]}},{"type":"Feature","properties":{"municipio":"sanCarlosAlzatate","nombre":"San Carlos Alzatate"},"geometry":{"type":"Polygon","coordinates":[[[-90.05794,14.42025],[-90.03193,14.42325],[-90.03073,14.42456],[-90.03204,14.43038],[-90.03849,14.43949],[-90.03978,14.45555],[-90.03575,14.46084],[-90.03626,14.46728],[-90.03394,14.47156],[-90.02904,14.47108],[-90.02231,14.47832],[-90.03468,14.49399],[-90.0448,14.51455],[-90.04778,14.51774],[-90.05582,14.51934],[-90.08159,14.52047],[-90.08878,14.52245],[-90.0981,14.5211],[-90.09891,14.52393],[-90.09681,14.52742],[-90.0985,14.5289],[-90.11615,14.53001],[-90.11777,14.51837],[-90.12083,14.51462],[-90.12844,14.51041],[-90.12822,14.50499],[-90.12984,14.50078],[-90.12837,14.48879],[-90.1261,14.48679],[-90.12154,14.4646],[-90.09897,14.44859],[-90.06505,14.42672],[-90.05794,14.42025]]]}},{"type":"Feature","properties":{"municipio":"sanLuisJilotepeque","nombre":"San Luis Jilotepeque"},"geometry":{"type":"Polygon","coordinates":[[[-89.72041,14.75087],[-89.72984,14.74362],[-89.75238,14.74254],[-89.75252,14.728],[-89.75482,14.72176],[-89.75313,14.71201],[-89.75494,14.70904],[-89.75647,14.69823],[-89.75579,14.69509],[-89.75156,14.69176],[-89.75112,14.68969],[-89.7537,14.6869],[-89.7737,14.67564],[-89.77764,14.67185],[-89.77969,14.65425],[-89.77378,14.63934],[-89.77477,14.6296],[-89.77212,14.62592],[-89.76617,14.62731],[-89.76372,14.62274],[-89.76142,14.61606],[-89.7627,14.61065],[-89.75683,14.60181],[-89.75507,14.59517],[-89.75629,14.59091],[-89.7546,14.58598],[-89.75279,14.58203],[-89.75381,14.57348],[-89.74919,14.56621],[-89.74975,14.55514],[-89.74653,14.55084],[-89.73675,14.55355],[-89.7309,14.55177],[-89.72651,14.55222],[-89.72219,14.55128],[-89.71131,14.54491],[-89.71012,14.54616],[-89.71083,14.55505],[-89.7095,14.55637],[-89.70244,14.5579],[-89.69849,14.55648],[-89.69399,14.55794],[-89.69177,14.5671],[-89.68915,14.56945],[-89.69029,14.57251],[-89.68782,14.57461],[-89.68791,14.57726],[-89.67608,14.58916],[-89.67271,14.59523],[-89.67475,14.61233],[-89.66809,14.61872],[-89.66495,14.62419],[-89.66559,14.63293],[-89.66891,14.63709],[-89.66876,14.63925],[-89.66446,14.64144],[-89.6618,14.64904],[-89.65496,14.65382],[-89.65043,14.66294],[-89.64883,14.67471],[-89.64662,14.67886],[-89.64519,14.68388],[-89.64686,14.68556],[-89.65291,14.68536],[-89.6523,14.68939],[-89.65386,14.69121],[-89.6572,14.69123],[-89.66507,14.68718],[-89.66865,14.68813],[-89.67198,14.69196],[-89.67131,14.69772],[-89.67383,14.70119],[-89.66896,14.70351],[-89.67543,14.7131],[-89.67318,14.71668],[-89.67559,14.7273],[-89.6749,14.73429],[-89.67307,14.73755],[-89.67276,14.75133],[-89.6806,14.75322],[-89.6872,14.74822],[-89.69351,14.74752],[-89.72041,14.75087]]]}},{"type":"Feature","properties":{"municipio":"sanManuelChaparron","nombre":"San Manuel Chaparrón"},"geometry":{"type":"Polygon","coordinates":[[[-89.68161,14.53076],[-89.68568,14.53767],[-89.6907,14.54221],[-89.69399,14.55794],[-89.69849,14.55648],[-89.70244,14.5579],[-89.7095,14.55637],[-89.71083,14.55505],[-89.71012,14.54616],[-89.71131,14.54491],[-89.72219,14.55128],[-89.72651,14.55222],[-89.7309,14.55177],[-89.73675,14.55355],[-89.74653,14.55084],[-89.74975,14.55514],[-89.74919,14.56621],[-89.75381,14.57348],[-89.75279,14.58203],[-89.7546,14.58598],[-89.76317,14.58561],[-89.7674,14.58398],[-89.77293,14.57865],[-89.77922,14.57569],[-89.78406,14.56998],[-89.78844,14.56871],[-89.79349,14.56342],[-89.7998,14.56622],[-89.80366,14.56556],[-89.80525,14.56337],[-89.80586,14.55544],[-89.80908,14.55288],[-89.81374,14.55294],[-89.81701,14.55625],[-89.81885,14.56254],[-89.82314,14.56427],[-89.82672,14.56472],[-89.83385,14.55884],[-89.8365,14.55905],[-89.84235,14.55428],[-89.84407,14.5449],[-89.83704,14.54797],[-89.83219,14.54525],[-89.83493,14.5382],[-89.83421,14.52235],[-89.83697,14.51669],[-89.83667,14.51128],[-89.83367,14.51305],[-89.82748,14.50991],[-89.82075,14.51261],[-89.82251,14.50837],[-89.81649,14.50517],[-89.80916,14.49836],[-89.80832,14.49221],[-89.79994,14.48872],[-89.79845,14.49034],[-89.79203,14.48907],[-89.79186,14.48751],[-89.79577,14.48358],[-89.7944,14.48206],[-89.78907,14.48106],[-89.78631,14.48308],[-89.78225,14.48217],[-89.77588,14.48432],[-89.76072,14.48199],[-89.7588,14.48486],[-89.74769,14.48569],[-89.74112,14.48375],[-89.72928,14.48471],[-89.72279,14.48197],[-89.71198,14.48162],[-89.70546,14.48583],[-89.70108,14.49183],[-89.69114,14.49739],[-89.68852,14.50875],[-89.68855,14.51631],[-89.68138,14.52629],[-89.68161,14.53076]]]}},{"type":"Feature","properties":{"municipio":"sanPedroPinula","nombre":"San Pedro Pinula"},"geometry":{"type":"Polygon","coordinates":[[[-89.86211,14.87176],[-89.86955,14.8712],[-89.8757,14.87302],[-89.88459,14.87324],[-89.93135,14.84702],[-89.93947,14.83837],[-89.94066,14.83389],[-89.93796,14.83264],[-89.93568,14.82822],[-89.93131,14.82566],[-89.92919,14.82096],[-89.92323,14.80352],[-89.92559,14.78953],[-89.92334,14.78179],[-89.92698,14.77495],[-89.92288,14.7545],[-89.92349,14.74828],[-89.92833,14.7377],[-89.93091,14.71175],[-89.93461,14.70554],[-89.93944,14.68887],[-89.93846,14.67509],[-89.9394,14.67296],[-89.94359,14.67158],[-89.94352,14.64789],[-89.94718,14.62191],[-89.94623,14.61168],[-89.94379,14.60887],[-89.93355,14.60638],[-89.93156,14.60451],[-89.9234,14.57145],[-89.91418,14.5698],[-89.89975,14.57954],[-89.89265,14.57904],[-89.88875,14.58055],[-89.86994,14.58227],[-89.86683,14.57844],[-89.86707,14.57251],[-89.86543,14.5707],[-89.85475,14.56847],[-89.85052,14.56279],[-89.83965,14.56198],[-89.8365,14.55905],[-89.83385,14.55884],[-89.82672,14.56472],[-89.82314,14.56427],[-89.81885,14.56254],[-89.81701,14.55625],[-89.81374,14.55294],[-89.80908,14.55288],[-89.80586,14.55544],[-89.80525,14.56337],[-89.80366,14.56556],[-89.7998,14.56622],[-89.79349,14.56342],[-89.78844,14.56871],[-89.78406,14.56998],[-89.77922,14.57569],[-89.77293,14.57865],[-89.7674,14.58398],[-89.76317,14.58561],[-89.7546,14.58598],[-89.75629,14.59091],[-89.75507,14.59517],[-89.75683,14.60181],[-89.7627,14.61065],[-89.76142,14.61606],[-89.76372,14.62274],[-89.76617,14.62731],[-89.77212,14.62592],[-89.77477,14.6296],[-89.77378,14.63934],[-89.77969,14.65425],[-89.77764,14.67185],[-89.7737,14.67564],[-89.7537,14.6869],[-89.75112,14.68969],[-89.75156,14.69176],[-89.75579,14.69509],[-89.75647,14.69823],[-89.75494,14.70904],[-89.75313,14.71201],[-89.75482,14.72176],[-89.75252,14.728],[-89.75238,14.74254],[-89.76861,14.75039],[-89.77238,14.75594],[-89.77576,14.76531],[-89.78479,14.76931],[-89.78886,14.77435],[-89.79603,14.77766],[-89.8039,14.78573],[-89.81229,14.7914],[-89.81204,14.79734],[-89.82616,14.81606],[-89.82597,14.81848],[-89.82304,14.82187],[-89.82465,14.82585],[-89.81989,14.82994],[-89.82393,14.83713],[-89.82294,14.84117],[-89.82016,14.84338],[-89.83289,14.8541],[-89.84153,14.85662],[-89.84292,14.8589],[-89.84226,14.8614],[-89.84439,14.86337],[-89.85374,14.86542],[-89.86154,14.86416],[-89.86267,14.86562],[-89.86211,14.87176]]]}}]}